CCSDS_OMM_VERS = 2.0
CREATION_DATE  = 
ORIGINATOR     = 

OBJECT_NAME    = UNKNOWN
OBJECT_ID      = 
CENTER_NAME    = EARTH
REF_FRAME      = TEME
TIME_SYSTEM    = UTC
MEAN_ELEMENT_THEORY = SGP/SGP4

EPOCH          = 2025-10-21T03:32:17.874240
MEAN_MOTION    = 12.25888904
ECCENTRICITY   = .0388432
INCLINATION    = 101.0860
RA_OF_ASC_NODE = 1.3674
ARG_OF_PERICENTER = 183.0583
MEAN_ANOMALY   = 176.8090

EPHEMERIS_TYPE = 0
CLASSIFICATION_TYPE = U
NORAD_CAT_ID   = 81693
ELEMENT_SET_NO = 999
REV_AT_EPOCH   = 96132
BSTAR          = .8422E-2
MEAN_MOTION_DOT = .1163E-4
MEAN_MOTION_DDOT = 0

CCSDS_OMM_VERS = 2.0
CREATION_DATE  = 
ORIGINATOR     = 

OBJECT_NAME    = UNKNOWN
OBJECT_ID      = 
CENTER_NAME    = EARTH
REF_FRAME      = TEME
TIME_SYSTEM    = UTC
MEAN_ELEMENT_THEORY = SGP/SGP4

EPOCH          = 2025-10-23T06:55:42.333888
MEAN_MOTION    = 14.39931184
ECCENTRICITY   = .0006866
INCLINATION    = 70.9985
RA_OF_ASC_NODE = 137.9148
ARG_OF_PERICENTER = 286.9450
MEAN_ANOMALY   = 73.0933

EPHEMERIS_TYPE = 0
CLASSIFICATION_TYPE = U
NORAD_CAT_ID   = 81745
ELEMENT_SET_NO = 999
REV_AT_EPOCH   = 62248
BSTAR          = .94688E-3
MEAN_MOTION_DOT = .2931E-4
MEAN_MOTION_DDOT = 0

CCSDS_OMM_VERS = 2.0
CREATION_DATE  = 
ORIGINATOR     = 

OBJECT_NAME    = UNKNOWN
OBJECT_ID      = 
CENTER_NAME    = EARTH
REF_FRAME      = TEME
TIME_SYSTEM    = UTC
MEAN_ELEMENT_THEORY = SGP/SGP4

EPOCH          = 2025-10-25T07:56:07.130976
MEAN_MOTION    = 12.77587173
ECCENTRICITY   = .036927
INCLINATION    = 99.6930
RA_OF_ASC_NODE = 335.1454
ARG_OF_PERICENTER = 316.3517
MEAN_ANOMALY   = 99.7559

EPHEMERIS_TYPE = 0
CLASSIFICATION_TYPE = U
NORAD_CAT_ID   = 81749
ELEMENT_SET_NO = 999
REV_AT_EPOCH   = 55582
BSTAR          = .86178E-3
MEAN_MOTION_DOT = .214E-5
MEAN_MOTION_DDOT = 0

CCSDS_OMM_VERS = 2.0
CREATION_DATE  = 
ORIGINATOR     = 

OBJECT_NAME    = UNKNOWN
OBJECT_ID      = 
CENTER_NAME    = EARTH
REF_FRAME      = TEME
TIME_SYSTEM    = UTC
MEAN_ELEMENT_THEORY = SGP/SGP4

EPOCH          = 2025-10-25T04:11:44.275200
MEAN_MOTION    = 14.39839365
ECCENTRICITY   = .0021408
INCLINATION    = 82.9180
RA_OF_ASC_NODE = 264.5037
ARG_OF_PERICENTER = 42.8919
MEAN_ANOMALY   = 317.3938

EPHEMERIS_TYPE = 0
CLASSIFICATION_TYPE = U
NORAD_CAT_ID   = 81775
ELEMENT_SET_NO = 999
REV_AT_EPOCH   = 61828
BSTAR          = .34462E-2
MEAN_MOTION_DOT = .10871E-3
MEAN_MOTION_DDOT = 0

CCSDS_OMM_VERS = 2.0
CREATION_DATE  = 
ORIGINATOR     = 

OBJECT_NAME    = UNKNOWN
OBJECT_ID      = 
CENTER_NAME    = EARTH
REF_FRAME      = TEME
TIME_SYSTEM    = UTC
MEAN_ELEMENT_THEORY = SGP/SGP4

EPOCH          = 2025-10-23T10:51:09.314496
MEAN_MOTION    = 13.10660187
ECCENTRICITY   = .0896684
INCLINATION    = 65.8254
RA_OF_ASC_NODE = 208.8555
ARG_OF_PERICENTER = 304.5833
MEAN_ANOMALY   = 47.3717

EPHEMERIS_TYPE = 0
CLASSIFICATION_TYPE = U
NORAD_CAT_ID   = 81792
ELEMENT_SET_NO = 999
REV_AT_EPOCH   = 7344
BSTAR          = .10224E-2
MEAN_MOTION_DOT = .2853E-4
MEAN_MOTION_DDOT = 0

CCSDS_OMM_VERS = 2.0
CREATION_DATE  = 
ORIGINATOR     = 

OBJECT_NAME    = UNKNOWN
OBJECT_ID      = 
CENTER_NAME    = EARTH
REF_FRAME      = TEME
TIME_SYSTEM    = UTC
MEAN_ELEMENT_THEORY = SGP/SGP4

EPOCH          = 2025-10-24T23:59:39.029856
MEAN_MOTION    = 12.37618368
ECCENTRICITY   = .0366744
INCLINATION    = 103.8171
RA_OF_ASC_NODE = 203.3342
ARG_OF_PERICENTER = 324.4473
MEAN_ANOMALY   = 33.2643

EPHEMERIS_TYPE = 0
CLASSIFICATION_TYPE = U
NORAD_CAT_ID   = 81812
ELEMENT_SET_NO = 999
REV_AT_EPOCH   = 53453
BSTAR          = .18033E-1
MEAN_MOTION_DOT = .2888E-4
MEAN_MOTION_DDOT = 0

CCSDS_OMM_VERS = 2.0
CREATION_DATE  = 
ORIGINATOR     = 

OBJECT_NAME    = UNKNOWN
OBJECT_ID      = 
CENTER_NAME    = EARTH
REF_FRAME      = TEME
TIME_SYSTEM    = UTC
MEAN_ELEMENT_THEORY = SGP/SGP4

EPOCH          = 2025-10-25T01:51:57.241440
MEAN_MOTION    = 13.89206357
ECCENTRICITY   = .018104
INCLINATION    = 66.2373
RA_OF_ASC_NODE = 57.4343
ARG_OF_PERICENTER = 272.4916
MEAN_ANOMALY   = 85.5443

EPHEMERIS_TYPE = 0
CLASSIFICATION_TYPE = U
NORAD_CAT_ID   = 81816
ELEMENT_SET_NO = 999
REV_AT_EPOCH   = 60258
BSTAR          = .19075E-2
MEAN_MOTION_DOT = .2568E-4
MEAN_MOTION_DDOT = 0

CCSDS_OMM_VERS = 2.0
CREATION_DATE  = 
ORIGINATOR     = 

OBJECT_NAME    = UNKNOWN
OBJECT_ID      = 
CENTER_NAME    = EARTH
REF_FRAME      = TEME
TIME_SYSTEM    = UTC
MEAN_ELEMENT_THEORY = SGP/SGP4

EPOCH          = 2025-10-25T05:25:49.791072
MEAN_MOTION    = 12.47533926
ECCENTRICITY   = .0038293
INCLINATION    = 102.1773
RA_OF_ASC_NODE = 34.7198
ARG_OF_PERICENTER = 206.7028
MEAN_ANOMALY   = 153.2068

EPHEMERIS_TYPE = 0
CLASSIFICATION_TYPE = U
NORAD_CAT_ID   = 81819
ELEMENT_SET_NO = 999
REV_AT_EPOCH   = 54196
BSTAR          = .67964E-2
MEAN_MOTION_DOT = .957E-5
MEAN_MOTION_DDOT = 0

CCSDS_OMM_VERS = 2.0
CREATION_DATE  = 
ORIGINATOR     = 

OBJECT_NAME    = UNKNOWN
OBJECT_ID      = 
CENTER_NAME    = EARTH
REF_FRAME      = TEME
TIME_SYSTEM    = UTC
MEAN_ELEMENT_THEORY = SGP/SGP4

EPOCH          = 2025-10-25T11:12:16.230528
MEAN_MOTION    = 14.34637605
ECCENTRICITY   = .0034626
INCLINATION    = 65.8382
RA_OF_ASC_NODE = 109.0123
ARG_OF_PERICENTER = 353.3462
MEAN_ANOMALY   = 6.7166

EPHEMERIS_TYPE = 0
CLASSIFICATION_TYPE = U
NORAD_CAT_ID   = 81824
ELEMENT_SET_NO = 999
REV_AT_EPOCH   = 61766
BSTAR          = .23465E-2
MEAN_MOTION_DOT = .6605E-4
MEAN_MOTION_DDOT = 0

CCSDS_OMM_VERS = 2.0
CREATION_DATE  = 
ORIGINATOR     = 

OBJECT_NAME    = UNKNOWN
OBJECT_ID      = 
CENTER_NAME    = EARTH
REF_FRAME      = TEME
TIME_SYSTEM    = UTC
MEAN_ELEMENT_THEORY = SGP/SGP4

EPOCH          = 2025-10-25T11:18:28.328544
MEAN_MOTION    = 12.93699270
ECCENTRICITY   = .0029306
INCLINATION    = 90.2446
RA_OF_ASC_NODE = 1.8511
ARG_OF_PERICENTER = 148.4607
MEAN_ANOMALY   = 211.8276

EPHEMERIS_TYPE = 0
CLASSIFICATION_TYPE = U
NORAD_CAT_ID   = 81833
ELEMENT_SET_NO = 999
REV_AT_EPOCH   = 44627
BSTAR          = .1344E-2
MEAN_MOTION_DOT = .378E-5
MEAN_MOTION_DDOT = 0

CCSDS_OMM_VERS = 2.0
CREATION_DATE  = 
ORIGINATOR     = 

OBJECT_NAME    = UNKNOWN
OBJECT_ID      = 
CENTER_NAME    = EARTH
REF_FRAME      = TEME
TIME_SYSTEM    = UTC
MEAN_ELEMENT_THEORY = SGP/SGP4

EPOCH          = 2025-10-25T12:03:36.240192
MEAN_MOTION    = 14.32223692
ECCENTRICITY   = .0061693
INCLINATION    = 82.9118
RA_OF_ASC_NODE = 322.0374
ARG_OF_PERICENTER = 301.0597
MEAN_ANOMALY   = 58.4543

EPHEMERIS_TYPE = 0
CLASSIFICATION_TYPE = U
NORAD_CAT_ID   = 81844
ELEMENT_SET_NO = 999
REV_AT_EPOCH   = 61598
BSTAR          = .21803E-2
MEAN_MOTION_DOT = .6017E-4
MEAN_MOTION_DDOT = 0

CCSDS_OMM_VERS = 2.0
CREATION_DATE  = 
ORIGINATOR     = 

OBJECT_NAME    = UNKNOWN
OBJECT_ID      = 
CENTER_NAME    = EARTH
REF_FRAME      = TEME
TIME_SYSTEM    = UTC
MEAN_ELEMENT_THEORY = SGP/SGP4

EPOCH          = 2025-10-23T06:58:51.053088
MEAN_MOTION    = 14.84665731
ECCENTRICITY   = .0089821
INCLINATION    = 97.6770
RA_OF_ASC_NODE = 125.1377
ARG_OF_PERICENTER = 110.6929
MEAN_ANOMALY   = 66.7824

EPHEMERIS_TYPE = 0
CLASSIFICATION_TYPE = U
NORAD_CAT_ID   = 81845
ELEMENT_SET_NO = 999
REV_AT_EPOCH   = 64203
BSTAR          = .43641E-3
MEAN_MOTION_DOT = .3913E-4
MEAN_MOTION_DDOT = 0

