UNKNOWN                 
1 81693U          25294.14742910  .00001163  00000+0  84220-2 0  9995
2 81693 101.0860   1.3674 0388432 183.0583 176.8090 12.25888904961321
UNKNOWN                 
1 81745U          25296.28868442  .00002931  00000+0  94688-3 0  9993
2 81745  70.9985 137.9148 0006866 286.9450  73.0933 14.39931184622488
UNKNOWN                 
1 81749U          25298.33063809  .00000214  00000+0  86178-3 0  9996
2 81749  99.6930 335.1454 0369270 316.3517  99.7559 12.77587173555822
UNKNOWN                 
1 81775U          25298.17481800  .00010871  00000+0  34462-2 0  9990
2 81775  82.9180 264.5037 0021408  42.8919 317.3938 14.39839365618283
UNKNOWN                 
1 81792U          25296.45219114  .00002853  00000+0  10224-2 0  9996
2 81792  65.8254 208.8555 0896684 304.5833  47.3717 13.10660187 73449
UNKNOWN                 
1 81812U          25297.99975729  .00002888  00000+0  18033-1 0  9993
2 81812 103.8171 203.3342 0366744 324.4473  33.2643 12.37618368534533
UNKNOWN                 
1 81816U          25298.07774585  .00002568  00000+0  19075-2 0  9997
2 81816  66.2373  57.4343 0181040 272.4916  85.5443 13.89206357602588
UNKNOWN                 
1 81819U          25298.22627073  .00000957  00000+0  67964-2 0  9996
2 81819 102.1773  34.7198 0038293 206.7028 153.2068 12.47533926541964
UNKNOWN                 
1 81824U          25298.46685452  .00006605  00000+0  23465-2 0  9997
2 81824  65.8382 109.0123 0034626 353.3462   6.7166 14.34637605617661
UNKNOWN                 
1 81833U          25298.47116121  .00000378  00000+0  13440-2 0  9993
2 81833  90.2446   1.8511 0029306 148.4607 211.8276 12.93699270446274
UNKNOWN                 
1 81844U          25298.50250278  .00006017  00000+0  21803-2 0  9999
2 81844  82.9118 322.0374 0061693 301.0597  58.4543 14.32223692615989
UNKNOWN                 
1 81845U          25296.29086867  .00003913  00000+0  43641-3 0  9992
2 81845  97.6770 125.1377 0089821 110.6929  66.7824 14.84665731642039
